[
  { "pref": "宮城県", "cities": [
    { "code": "0410100", "name": "仙台市青葉区", "area_name": "宮城県中部", "area_code": "042" },
    { "code": "0410200", "name": "仙台市宮城野区", "area_name": "宮城県中部", "area_code": "042" },
    { "code": "0410300", "name": "仙台市若林区", "area_name": "宮城県中部", "area_code": "042" },
    { "code": "0410400", "name": "仙台市太白区", "area_name": "宮城県中部", "area_code": "042" },
    { "code": "0410500", "name": "仙台市泉区", "area_name": "宮城県中部", "area_code": "042" },
    { "code": "0420200", "name": "石巻市", "area_name": "宮城県東部", "area_code": "041" }
  ]},
  { "pref": "栃木県", "cities": [
    { "code": "0920100", "name": "宇都宮市", "area_name": "栃木県南部", "area_code": "092" },
    { "code": "0920200", "name": "足利市", "area_name": "栃木県南部", "area_code": "092" }
  ]},
  { "pref": "東京都", "cities": [
    { "code": "1310100", "name": "千代田区", "area_name": "東京都２３区", "area_code": "131" },
    { "code": "1310200", "name": "中央区", "area_name": "東京都２３区", "area_code": "131" },
    { "code": "1310300", "name": "港区", "area_name": "東京都２３区", "area_code": "131" },
    { "code": "1310400", "name": "新宿区", "area_name": "東京都２３区", "area_code": "131" }
  ]},
  { "pref": "埼玉県", "cities": [
    { "code": "1110000", "name": "さいたま市", "area_name": "埼玉県南部", "area_code": "111" },
    { "code": "1138200", "name": "上里町", "area_name": "埼玉県北部", "area_code": "112" }
  ]},
  { "pref": "静岡県", "cities": [
    { "code": "2210000", "name": "静岡市", "area_name": "静岡県中部", "area_code": "221" },
    { "code": "2221000", "name": "富士市", "area_name": "静岡県東部", "area_code": "222" }
  ]}
]
